[
    {
        "Altitude(m)": 707287.5303343347,
        "Argument of Periapsis(deg)": 0.011390121186627068,
        "Eccentricity": 0.0,
        "Inclination(deg)": 45.0,
        "Latitude(deg)": 45.055560568352554,
        "Longitude(deg)": 18.981476515035972,
        "Mean Anomaly(deg)": 93.3514166474808,
        "RAAN(deg)": 24.989248058541797,
        "Satellite Name": "Constellation 1 115",
        "Satellite Number": 115,
        "Semi-Major Axis(m)": 7083131.272910544,
        "Time(s)": 190
    },
    {
        "Altitude(m)": 707286.7228115075,
        "Argument of Periapsis(deg)": 0.011450069192872472,
        "Eccentricity": 0.0,
        "Inclination(deg)": 45.0,
        "Latitude(deg)": 45.05196300789347,
        "Longitude(deg)": 19.06296080674835,
        "Mean Anomaly(deg)": 93.41211778773072,
        "RAAN(deg)": 24.989191469376227,
        "Satellite Name": "Constellation 1 115",
        "Satellite Number": 115,
        "Semi-Major Axis(m)": 7083131.272910544,
        "Time(s)": 191
    },
    {
        "Altitude(m)": 707285.9007846692,
        "Argument of Periapsis(deg)": 0.01151001719911788,
        "Eccentricity": 0.0,
        "Inclination(deg)": 45.0,
        "Latitude(deg)": 45.04830133229246,
        "Longitude(deg)": 19.14443427874972,
        "Mean Anomaly(deg)": 93.47281892798065,
        "RAAN(deg)": 24.98913488021066,
        "Satellite Name": "Constellation 1 115",
        "Satellite Number": 115,
        "Semi-Major Axis(m)": 7083131.272910544,
        "Time(s)": 192
    },
    {
        "Altitude(m)": 707285.0642586522,
        "Argument of Periapsis(deg)": 0.011569965205363285,
        "Eccentricity": 0.0,
        "Inclination(deg)": 45.0,
        "Latitude(deg)": 45.04457555777044,
        "Longitude(deg)": 19.225896574662467,
        "Mean Anomaly(deg)": 93.53352006823053,
        "RAAN(deg)": 24.989078291045086,
        "Satellite Name": "Constellation 1 115",
        "Satellite Number": 115,
        "Semi-Major Axis(m)": 7083131.272910544,
        "Time(s)": 193
    },
    {
        "Altitude(m)": 707284.2132383885,
        "Argument of Periapsis(deg)": 0.01162991321160869,
        "Eccentricity": 0.0,
        "Inclination(deg)": 45.0,
        "Latitude(deg)": 45.04078570082781,
        "Longitude(deg)": 19.307347842596503,
        "Mean Anomaly(deg)": 93.59422120848043,
        "RAAN(deg)": 24.98902170187952,
        "Satellite Name": "Constellation 1 115",
        "Satellite Number": 115,
        "Semi-Major Axis(m)": 7083131.272910544,
        "Time(s)": 194
    },
    {
        "Altitude(m)": 707283.3477288887,
        "Argument of Periapsis(deg)": 0.011689861217854095,
        "Eccentricity": 0.0,
        "Inclination(deg)": 45.0,
        "Latitude(deg)": 45.036931778242355,
        "Longitude(deg)": 19.388787726568694,
        "Mean Anomaly(deg)": 93.65492234873031,
        "RAAN(deg)": 24.98896511271395,
        "Satellite Name": "Constellation 1 115",
        "Satellite Number": 115,
        "Semi-Major Axis(m)": 7083131.272910544,
        "Time(s)": 195
    },
    {
        "Altitude(m)": 707282.4677352493,
        "Argument of Periapsis(deg)": 0.0117498092240995,
        "Eccentricity": 0.0,
        "Inclination(deg)": 45.0,
        "Latitude(deg)": 45.03301380707012,
        "Longitude(deg)": 19.470216038895767,
        "Mean Anomaly(deg)": 93.71562348898024,
        "RAAN(deg)": 24.988908523548382,
        "Satellite Name": "Constellation 1 115",
        "Satellite Number": 115,
        "Semi-Major Axis(m)": 7083131.272910544,
        "Time(s)": 196
    },
    {
        "Altitude(m)": 707281.5732626532,
        "Argument of Periapsis(deg)": 0.011809757230344905,
        "Eccentricity": 0.0,
        "Inclination(deg)": 45.0,
        "Latitude(deg)": 45.02903180464475,
        "Longitude(deg)": 19.55163259209952,
        "Mean Anomaly(deg)": 93.77632462923012,
        "RAAN(deg)": 24.98885193438281,
        "Satellite Name": "Constellation 1 115",
        "Satellite Number": 115,
        "Semi-Major Axis(m)": 7083131.272910544,
        "Time(s)": 197
    },
    {
        "Altitude(m)": 707280.6643163604,
        "Argument of Periapsis(deg)": 0.011869705236590313,
        "Eccentricity": 0.0,
        "Inclination(deg)": 45.0,
        "Latitude(deg)": 45.024985788577084,
        "Longitude(deg)": 19.633037198910685,
        "Mean Anomaly(deg)": 93.83702576948002,
        "RAAN(deg)": 24.988795345217238,
        "Satellite Name": "Constellation 1 115",
        "Satellite Number": 115,
        "Semi-Major Axis(m)": 7083131.272910544,
        "Time(s)": 198
    },
    {
        "Altitude(m)": 707279.7409017307,
        "Argument of Periapsis(deg)": 0.011929653242835719,
        "Eccentricity": 0.0,
        "Inclination(deg)": 45.0,
        "Latitude(deg)": 45.020875776754806,
        "Longitude(deg)": 19.714429672271645,
        "Mean Anomaly(deg)": 93.8977269097299,
        "RAAN(deg)": 24.98873875605167,
        "Satellite Name": "Constellation 1 115",
        "Satellite Number": 115,
        "Semi-Major Axis(m)": 7083131.272910544,
        "Time(s)": 199
    }
]